[Satellite]
VERSION=1.1
NAME=LEMUR-2-MIA-GRACE
NICKNAME=LEMUR-2-MIA-GRACE
TLE1=1 41992U 17008AW  18021.10671659  .00001644  00000-0  71951-4 0  9990
TLE2=2 41992  97.4693  86.6724 0008689 144.8189 215.3623 15.23451271 51025
